NORAD_CAT_ID,OBJECT_NAME,OBJECT_TYPE,EPOCH,MEAN_MOTION,ECCENTRICITY,INCLINATION,RA_OF_ASC_NODE,ARG_OF_PERICENTER,MEAN_ANOMALY,BSTAR,MEAN_MOTION_DOT,MEAN_MOTION_DDOT,TLE_LINE0,TLE_LINE1,TLE_LINE2,SEMIMAJOR_AXIS,PERIOD,APOGEE,PERIGEE,DECAYED
53907.0,STARLINK-5063,PAYLOAD,2023-08-26 05:00:37,15.08847274,0.0001595,53.2173,162.8105,114.7545,245.3613,0.00011902,1.607e-05,0.0,0 STARLINK-5063,1 53907U 22119X   23238.20876777  .00001607  00000-0  11902-3 0  9991,2 53907  53.2173 162.8105 0001595 114.7545 245.3613 15.08847274 51823,6917.858,95.437,540.827,538.62,0.0
53907.0,STARLINK-5063,PAYLOAD,2023-08-27 03:16:01,15.08844299,0.0001431,53.2175,158.6482,96.6128,263.5027,8.4257e-05,1.053e-05,0.0,0 STARLINK-5063,1 53907U 22119X   23239.13612958  .00001053  00000-0  84257-4 0  9992,2 53907  53.2175 158.6482 0001431  96.6128 263.5027 15.08844299 51544,6917.867,95.437,540.722,538.742,0.0
53907.0,STARLINK-5063,PAYLOAD,2023-08-28 19:00:40,15.08833255,0.0001564,53.2189,151.2194,105.6523,254.4642,-1.5146e-05,-5.29e-06,0.0,0 STARLINK-5063,1 53907U 22119X   23240.79213701 -.00000529  00000-0 -15146-4 0  9999,2 53907  53.2189 151.2194 0001564 105.6523 254.4642 15.08833255 51794,6917.901,95.438,540.848,538.684,0.0
53907.0,STARLINK-5063,PAYLOAD,2023-08-29 10:54:32,15.0883814,0.0001512,53.2183,148.2436,86.5976,273.5189,4.8277e-05,4.8e-06,0.0,0 STARLINK-5063,1 53907U 22119X   23241.45453870  .00000480  00000-0  48277-4 0  9991,2 53907  53.2183 148.2436 0001512  86.5976 273.5189 15.08838140 52310,6917.886,95.438,540.797,538.705,0.0
53907.0,STARLINK-5063,PAYLOAD,2023-08-30 01:13:00,15.08838431,0.0001466,53.2183,145.5669,97.035,263.0809,3.0763e-05,2.02e-06,0.0,0 STARLINK-5063,1 53907U 22119X   23242.05070120  .00000202  00000-0  30763-4 0  9994,2 53907  53.2183 145.5669 0001466  97.0350 263.0809 15.08838431 51987,6917.885,95.438,540.764,538.736,0.0
53907.0,STARLINK-5063,PAYLOAD,2023-08-30 10:45:19,15.08841542,0.0001381,53.2179,143.7847,87.7696,272.3454,6.3685e-05,7.26e-06,0.0,0 STARLINK-5063,1 53907U 22119X   23242.44813881  .00000726  00000-0  63685-4 0  9996,2 53907  53.2179 143.7847 0001381  87.7696 272.3454 15.08841542 52465,6917.876,95.437,540.696,538.785,0.0
53907.0,STARLINK-5063,PAYLOAD,2023-08-31 02:39:10,15.0884609,0.0001423,53.2179,140.8106,90.032,270.0836,0.00015486,2.178e-05,0.0,0 STARLINK-5063,1 53907U 22119X   23243.11053442  .00002178  00000-0  15486-3 0  9998,2 53907  53.2179 140.8106 0001423  90.0320 270.0836 15.08846090 52146,6917.862,95.437,540.711,538.742,0.0
53907.0,STARLINK-5063,PAYLOAD,2023-09-01 02:29:57,15.0884238,0.0001185,53.2167,136.3502,92.7604,267.3524,9.5994e-05,1.24e-05,0.0,0 STARLINK-5063,1 53907U 22119X   23244.10413744  .00001240  00000-0  95994-4 0  9995,2 53907  53.2167 136.3502 0001185  92.7604 267.3524 15.08842380 52299,6917.873,95.437,540.558,538.918,0.0
53907.0,STARLINK-5063,PAYLOAD,2023-09-01 10:26:53,15.08833656,0.0001255,53.2164,134.8635,90.1818,269.9318,0.00023097,3.389e-05,0.0,0 STARLINK-5063,1 53907U 22119X   23244.43534162  .00003389  00000-0  23097-3 0  9999,2 53907  53.2164 134.8635 0001255  90.1818 269.9318 15.08833656 52760,6917.9,95.438,540.633,538.897,0.0
53907.0,STARLINK-5063,PAYLOAD,2023-09-02 02:20:43,15.0884834,0.0001519,53.2161,131.8881,90.9616,269.155,0.00011896,1.606e-05,0.0,0 STARLINK-5063,1 53907U 22119X   23245.09773126  .00001606  00000-0  11896-3 0  9991,2 53907  53.2161 131.8881 0001519  90.9616 269.1550 15.08848340 52445,6917.855,95.437,540.771,538.669,0.0
53907.0,STARLINK-5063,PAYLOAD,2023-09-02 16:39:13,15.0883674,0.000198,53.2159,129.2123,90.0165,270.1054,4.6121e-05,4.46e-06,0.0,0 STARLINK-5063,1 53907U 22119X   23245.69390174  .00000446  00000-0  46121-4 0  9996,2 53907  53.2159 129.2123 0001980  90.0165 270.1054 15.08836740 52536,6917.89,95.438,541.125,538.386,0.0
53907.0,STARLINK-5063,PAYLOAD,2023-09-02 19:49:59,15.08837938,9.06e-05,53.2152,128.6153,131.6007,228.5063,3.3183e-05,2.4e-06,0.0,0 STARLINK-5063,1 53907U 22119X   23245.82637773  .00000240  00000-0  33183-4 0  9996,2 53907  53.2152 128.6153 0000906 131.6007 228.5063 15.08837938 52974,6917.887,95.438,540.378,539.125,0.0
53907.0,STARLINK-5063,PAYLOAD,2023-09-03 02:11:31,15.08837331,0.0001301,53.2177,127.4262,95.738,264.376,4.6081e-05,4.46e-06,0.0,0 STARLINK-5063,1 53907U 22119X   23246.09134041  .00000446  00000-0  46081-4 0  9995,2 53907  53.2177 127.4262 0001301  95.7380 264.3760 15.08837331 53018,6917.889,95.438,540.654,538.854,0.0
53907.0,STARLINK-5063,PAYLOAD,2023-09-04 02:02:18,15.08834442,0.0001568,53.2178,122.9678,84.7039,275.4132,0.00020331,2.949e-05,0.0,0 STARLINK-5063,1 53907U 22119X   23247.08494174  .00002949  00000-0  20331-3 0  9990,2 53907  53.2178 122.9678 0001568  84.7039 275.4132 15.08834442 52749,6917.897,95.438,540.847,538.678,0.0
53907.0,STARLINK-5063,PAYLOAD,2023-09-04 08:23:51,15.08835426,0.0001686,53.2176,121.7778,86.7208,273.3977,0.00011488,1.541e-05,0.0,0 STARLINK-5063,1 53907U 22119X   23247.34990467  .00001541  00000-0  11488-3 0  9995,2 53907  53.2176 121.7778 0001686  86.7208 273.3977 15.08835426 53205,6917.894,95.438,540.926,538.593,0.0
53907.0,STARLINK-5063,PAYLOAD,2023-09-04 16:20:47,15.08831569,0.0001365,53.218,120.2917,83.018,277.0967,6.1208e-05,6.86e-06,0.0,0 STARLINK-5063,1 53907U 22119X   23247.68110966  .00000686  00000-0  61208-4 0  9995,2 53907  53.2180 120.2917 0001365  83.0180 277.0967 15.08831569 52834,6917.906,95.438,540.715,538.827,0.0
53907.0,STARLINK-5063,PAYLOAD,2023-09-05 00:17:43,15.08835956,0.0001371,53.2181,118.8058,79.626,280.4886,0.00010557,1.392e-05,0.0,0 STARLINK-5063,1 53907U 22119X   23248.01230712  .00001392  00000-0  10557-3 0  9990,2 53907  53.2181 118.8058 0001371  79.6260 280.4886 15.08835956 53306,6917.893,95.438,540.706,538.809,0.0
53907.0,STARLINK-5063,PAYLOAD,2023-09-06 01:43:53,15.08844166,0.0001326,53.2182,114.047,87.0471,273.0673,7.6248e-05,9.26e-06,0.0,0 STARLINK-5063,1 53907U 22119X   23249.07214353  .00000926  00000-0  76248-4 0  9992,2 53907  53.2182 114.0470 0001326  87.0471 273.0673 15.08844166 53046,6917.868,95.437,540.65,538.815,0.0
53907.0,STARLINK-5063,PAYLOAD,2023-09-06 23:59:16,15.0884522,0.0001257,53.218,109.8834,92.9281,267.1855,0.0001049,1.382e-05,0.0,0 STARLINK-5063,1 53907U 22119X   23249.99950224  .00001382  00000-0  10490-3 0  9990,2 53907  53.2180 109.8834 0001257  92.9281 267.1855 15.08845220 53607,6917.864,95.437,540.599,538.86,0.0
53907.0,STARLINK-5063,PAYLOAD,2023-09-07 20:39:18,15.08840283,0.0001525,53.218,106.0189,87.3555,272.7611,5.9297e-05,6.56e-06,0.0,0 STARLINK-5063,1 53907U 22119X   23250.86062750  .00000656  00000-0  59297-4 0  9998,2 53907  53.2180 106.0189 0001525  87.3555 272.7611 15.08840283 53739,6917.88,95.438,540.8,538.69,0.0
53907.0,STARLINK-5063,PAYLOAD,2023-09-07 23:50:04,15.08841795,0.0001602,53.2166,105.4238,83.795,276.3224,5.0351e-05,5.13e-06,0.0,0 STARLINK-5063,1 53907U 22119X   23250.99310651  .00000513  00000-0  50351-4 0  9992,2 53907  53.2166 105.4238 0001602  83.7950 276.3224 15.08841795 53331,6917.875,95.437,540.848,538.632,0.0
53907.0,STARLINK-5063,PAYLOAD,2023-09-08 20:30:04,15.08842333,0.0001503,53.2179,101.5557,96.0937,264.0227,0.00011196,1.494e-05,0.0,0 STARLINK-5063,1 53907U 22119X   23251.85422262  .00001494  00000-0  11196-3 0  9992,2 53907  53.2179 101.5557 0001503  96.0937 264.0227 15.08842333 53884,6917.873,95.437,540.778,538.699,0.0
53907.0,STARLINK-5063,PAYLOAD,2023-09-09 07:37:46,15.08843206,0.000149,53.2181,99.4742,95.9538,264.1624,0.00010903,1.448e-05,0.0,0 STARLINK-5063,1 53907U 22119X   23252.31790183  .00001448  00000-0  10903-3 0  9998,2 53907  53.2181  99.4742 0001490  95.9538 264.1624 15.08843206 53532,6917.871,95.437,540.766,538.705,0.0
53907.0,STARLINK-5063,PAYLOAD,2023-09-09 18:45:29,15.0884003,0.000146,53.2182,97.3926,96.3979,263.7179,5.2318e-05,5.45e-06,0.0,0 STARLINK-5063,1 53907U 22119X   23252.78158654  .00000545  00000-0  52318-4 0  9994,2 53907  53.2182  97.3926 0001460  96.3979 263.7179 15.08840030 53605,6917.88,95.438,540.755,538.735,0.0
53907.0,STARLINK-5063,PAYLOAD,2023-09-10 13:50:06,15.08837002,0.0001459,53.2187,93.8235,99.6172,260.4985,2.873e-05,1.69e-06,0.0,0 STARLINK-5063,1 53907U 22119X   23253.57646985  .00000169  00000-0  28730-4 0  9994,2 53907  53.2187  93.8235 0001459  99.6172 260.4985 15.08837002 54147,6917.89,95.438,540.764,538.745,0.0
53907.0,STARLINK-5063,PAYLOAD,2023-09-10 20:11:39,15.08839802,0.0001276,53.2179,92.6355,88.4428,271.671,5.3858e-05,5.69e-06,0.0,0 STARLINK-5063,1 53907U 22119X   23253.84142796  .00000569  00000-0  53858-4 0  9998,2 53907  53.2179  92.6355 0001276  88.4428 271.6710 15.08839802 53762,6917.881,95.438,540.629,538.863,0.0
53907.0,STARLINK-5063,PAYLOAD,2023-09-11 05:43:58,15.08839998,0.0001283,53.2183,90.8513,87.6294,272.4845,5.3792e-05,5.68e-06,0.0,0 STARLINK-5063,1 53907U 22119X   23254.23886862  .00000568  00000-0  53792-4 0  9997,2 53907  53.2183  90.8513 0001283  87.6294 272.4845 15.08839998 54241,6917.88,95.438,540.633,538.858,0.0
53907.0,STARLINK-5063,PAYLOAD,2023-09-12 05:34:44,15.08846136,0.000123,53.218,86.392,86.7002,273.4131,0.00011319,1.514e-05,0.0,0 STARLINK-5063,1 53907U 22119X   23255.23246414  .00001514  00000-0  11319-3 0  9991,2 53907  53.2180  86.3920 0001230  86.7002 273.4131 15.08846136 53979,6917.862,95.437,540.578,538.876,0.0
53907.0,STARLINK-5063,PAYLOAD,2023-09-12 13:31:41,15.08836465,0.0001261,53.2186,84.9071,90.494,269.6196,3.997e-05,3.48e-06,0.0,0 STARLINK-5063,1 53907U 22119X   23255.56367439  .00000348  00000-0  39970-4 0  9996,2 53907  53.2186  84.9071 0001261  90.4940 269.6196 15.08836465 54448,6917.891,95.438,540.629,538.884,0.0
53907.0,STARLINK-5063,PAYLOAD,2023-09-12 18:17:50,15.0883756,0.0001277,53.2182,84.014,86.5096,273.6043,4.3353e-05,4.02e-06,0.0,0 STARLINK-5063,1 53907U 22119X   23255.76239409  .00000402  00000-0  43353-4 0  9994,2 53907  53.2182  84.0140 0001277  86.5096 273.6043 15.08837560 54057,6917.888,95.438,540.636,538.869,0.0
